CTC1_L_00018001-01
1 18893U 26716HA  26037.47800926  .00000000  00000+0  00000-0 0  9994
2 18893  65.0000   0.0000 0000000   0.0000   0.0000 15.80155563    12
CTC1_L_00018001-02
1 18894U 23631LN  26037.47800926  .00000000  00000+0  00000-0 0  9998
2 18894  65.0000   0.0000 0000000   0.0000  90.0000 15.80155563    12
CTC1_L_00018001-03
1 18895U 23292JE  26037.47800926  .00000000  00000+0  00000-0 0  9992
2 18895  65.0000   0.0000 0000000   0.0000 180.0000 15.80155563    13
CTC1_L_00018001-04
1 18896U 22346AY  26037.47800926  .00000000  00000+0  00000-0 0  9992
2 18896  65.0000   0.0000 0000000   0.0000 270.0000 15.80155563    14
CTC1_L_00018002-01
1 18897U 24004BL  26037.47800926  .00000000  00000+0  00000-0 0  9996
2 18897  65.0000  12.0000 0000000   0.0000  12.0000 15.80155563    12
CTC1_L_00018002-02
1 18898U 25351IV  26037.47800926  .00000000  00000+0  00000-0 0  9993
2 18898  65.0000  12.0000 0000000   0.0000 102.0000 15.80155563    13
CTC1_L_00018002-03
1 18899U 23364LL  26037.47800926  .00000000  00000+0  00000-0 0  9996
2 18899  65.0000  12.0000 0000000   0.0000 192.0000 15.80155563    13
CTC1_L_00018002-04
1 18900U 26611DC  26037.47800926  .00000000  00000+0  00000-0 0  9997
2 18900  65.0000  12.0000 0000000   0.0000 282.0000 15.80155563    16
CTC1_L_00018003-01
1 18901U 26147KH  26037.47800926  .00000000  00000+0  00000-0 0  9992
2 18901  65.0000  24.0000 0000000   0.0000  24.0000 15.80155563    14
CTC1_L_00018003-02
1 18902U 24119PW  26037.47800926  .00000000  00000+0  00000-0 0  9990
2 18902  65.0000  24.0000 0000000   0.0000 114.0000 15.80155563    15
CTC1_L_00018003-03
1 18903U 24260AX  26037.47800926  .00000000  00000+0  00000-0 0  9998
2 18903  65.0000  24.0000 0000000   0.0000 204.0000 15.80155563    16
CTC1_L_00018003-04
1 18904U 23881CE  26037.47800926  .00000000  00000+0  00000-0 0  9997
2 18904  65.0000  24.0000 0000000   0.0000 294.0000 15.80155563    16
CTC1_L_00018004-01
1 18905U 24540KH  26037.47800926  .00000000  00000+0  00000-0 0  9991
2 18905  65.0000  36.0000 0000000   0.0000  36.0000 15.80155563    14
CTC1_L_00018004-02
1 18906U 25740UF  26037.47800926  .00000000  00000+0  00000-0 0  9995
2 18906  65.0000  36.0000 0000000   0.0000 126.0000 15.80155563    15
CTC1_L_00018004-03
1 18907U 25044W   26037.47800926  .00000000  00000+0  00000-0 0  9993
2 18907  65.0000  36.0000 0000000   0.0000 216.0000 15.80155563    16
CTC1_L_00018004-04
1 18908U 26645HU  26037.47800926  .00000000  00000+0  00000-0 0  9992
2 18908  65.0000  36.0000 0000000   0.0000 306.0000 15.80155563    17
CTC1_L_00018005-01
1 18909U 25312PS  26037.47800926  .00000000  00000+0  00000-0 0  9993
2 18909  65.0000  48.0000 0000000   0.0000  48.0000 15.80155563    14
CTC1_L_00018005-02
1 18910U 24090UN  26037.47800926  .00000000  00000+0  00000-0 0  9997
2 18910  65.0000  48.0000 0000000   0.0000 138.0000 15.80155563    16
CTC1_L_00018005-03
1 18911U 25836BV  26037.47800926  .00000000  00000+0  00000-0 0  9997
2 18911  65.0000  48.0000 0000000   0.0000 228.0000 15.80155563    17
CTC1_L_00018005-04
1 18912U 23190TH  26037.47800926  .00000000  00000+0  00000-0 0  9999
2 18912  65.0000  48.0000 0000000   0.0000 318.0000 15.80155563    18
CTC1_L_00018006-01
1 18913U 22083NT  26037.47800926  .00000000  00000+0  00000-0 0  9990
2 18913  65.0000  60.0000 0000000   0.0000  60.0000 15.80155563    17
CTC1_L_00018006-02
1 18914U 25002YY  26037.47800926  .00000000  00000+0  00000-0 0  9995
2 18914  65.0000  60.0000 0000000   0.0000 150.0000 15.80155563    18
CTC1_L_00018006-03
1 18915U 24929A   26037.47800926  .00000000  00000+0  00000-0 0  9993
2 18915  65.0000  60.0000 0000000   0.0000 240.0000 15.80155563    19
CTC1_L_00018006-04
1 18916U 24136VQ  26037.47800926  .00000000  00000+0  00000-0 0  9994
2 18916  65.0000  60.0000 0000000   0.0000 330.0000 15.80155563    10
CTC1_L_00018007-01
1 18917U 25127IY  26037.47800926  .00000000  00000+0  00000-0 0  9996
2 18917  65.0000  72.0000 0000000   0.0000  72.0000 15.80155563    17
CTC1_L_00018007-02
1 18918U 24515SQ  26037.47800926  .00000000  00000+0  00000-0 0  9997
2 18918  65.0000  72.0000 0000000   0.0000 162.0000 15.80155563    18
CTC1_L_00018007-03
1 18919U 23399WL  26037.47800926  .00000000  00000+0  00000-0 0  9997
2 18919  65.0000  72.0000 0000000   0.0000 252.0000 15.80155563    19
CTC1_L_00018007-04
1 18920U 24628EF  26037.47800926  .00000000  00000+0  00000-0 0  9995
2 18920  65.0000  72.0000 0000000   0.0000 342.0000 15.80155563    11
CTC1_L_00018008-01
1 18921U 22388MQ  26037.47800926  .00000000  00000+0  00000-0 0  9997
2 18921  65.0000  84.0000 0000000   0.0000  84.0000 15.80155563    18
CTC1_L_00018008-02
1 18922U 26815UY  26037.47800926  .00000000  00000+0  00000-0 0  9997
2 18922  65.0000  84.0000 0000000   0.0000 174.0000 15.80155563    19
CTC1_L_00018008-03
1 18923U 25876AE  26037.47800926  .00000000  00000+0  00000-0 0  9994
2 18923  65.0000  84.0000 0000000   0.0000 264.0000 15.80155563    10
CTC1_L_00018008-04
1 18924U 23257BX  26037.47800926  .00000000  00000+0  00000-0 0  9996
2 18924  65.0000  84.0000 0000000   0.0000 354.0000 15.80155563    11
CTC1_L_00018009-01
1 18925U 25198XF  26037.47800926  .00000000  00000+0  00000-0 0  9993
2 18925  65.0000  96.0000 0000000   0.0000  96.0000 15.80155563    18
CTC1_L_00018009-02
1 18926U 23862FL  26037.47800926  .00000000  00000+0  00000-0 0  9990
2 18926  65.0000  96.0000 0000000   0.0000 186.0000 15.80155563    19
CTC1_L_00018009-03
1 18927U 26028HS  26037.47800926  .00000000  00000+0  00000-0 0  9998
2 18927  65.0000  96.0000 0000000   0.0000 276.0000 15.80155563    10
CTC1_L_00018009-04
1 18928U 24965O   26037.47800926  .00000000  00000+0  00000-0 0  9997
2 18928  65.0000  96.0000 0000000   0.0000   6.0000 15.80155563    12
CTC1_L_00018010-01
1 18929U 23808JV  26037.47800926  .00000000  00000+0  00000-0 0  9993
2 18929  65.0000 108.0000 0000000   0.0000 108.0000 15.80155563    10
CTC1_L_00018010-02
1 18930U 24650WV  26037.47800926  .00000000  00000+0  00000-0 0  9991
2 18930  65.0000 108.0000 0000000   0.0000 198.0000 15.80155563    11
CTC1_L_00018010-03
1 18931U 25394ZN  26037.47800926  .00000000  00000+0  00000-0 0  9998
2 18931  65.0000 108.0000 0000000   0.0000 288.0000 15.80155563    12
CTC1_L_00018010-04
1 18932U 26520RN  26037.47800926  .00000000  00000+0  00000-0 0  9991
2 18932  65.0000 108.0000 0000000   0.0000  18.0000 15.80155563    14
CTC1_L_00018011-01
1 18933U 24439DR  26037.47800926  .00000000  00000+0  00000-0 0  9999
2 18933  65.0000 120.0000 0000000   0.0000 120.0000 15.80155563    13
CTC1_L_00018011-02
1 18934U 23141OL  26037.47800926  .00000000  00000+0  00000-0 0  9999
2 18934  65.0000 120.0000 0000000   0.0000 210.0000 15.80155563    14
CTC1_L_00018011-03
1 18935U 25633XK  26037.47800926  .00000000  00000+0  00000-0 0  9998
2 18935  65.0000 120.0000 0000000   0.0000 300.0000 15.80155563    15
CTC1_L_00018011-04
1 18936U 25115ZD  26037.47800926  .00000000  00000+0  00000-0 0  9994
2 18936  65.0000 120.0000 0000000   0.0000  30.0000 15.80155563    16
CTC1_L_00018012-01
1 18937U 25594PV  26037.47800926  .00000000  00000+0  00000-0 0  9996
2 18937  65.0000 132.0000 0000000   0.0000 132.0000 15.80155563    13
CTC1_L_00018012-02
1 18938U 23273AT  26037.47800926  .00000000  00000+0  00000-0 0  9999
2 18938  65.0000 132.0000 0000000   0.0000 222.0000 15.80155563    14
CTC1_L_00018012-03
1 18939U 22794AE  26037.47800926  .00000000  00000+0  00000-0 0  9997
2 18939  65.0000 132.0000 0000000   0.0000 312.0000 15.80155563    15
CTC1_L_00018012-04
1 18940U 23811OE  26037.47800926  .00000000  00000+0  00000-0 0  9990
2 18940  65.0000 132.0000 0000000   0.0000  42.0000 15.80155563    17
CTC1_L_00018013-01
1 18941U 23433SX  26037.47800926  .00000000  00000+0  00000-0 0  9991
2 18941  65.0000 144.0000 0000000   0.0000 144.0000 15.80155563    14
CTC1_L_00018013-02
1 18942U 26824YH  26037.47800926  .00000000  00000+0  00000-0 0  9999
2 18942  65.0000 144.0000 0000000   0.0000 234.0000 15.80155563    15
CTC1_L_00018013-03
1 18943U 22510PV  26037.47800926  .00000000  00000+0  00000-0 0  9998
2 18943  65.0000 144.0000 0000000   0.0000 324.0000 15.80155563    16
CTC1_L_00018013-04
1 18944U 24092IY  26037.47800926  .00000000  00000+0  00000-0 0  9996
2 18944  65.0000 144.0000 0000000   0.0000  54.0000 15.80155563    17
CTC1_L_00018014-01
1 18945U 24848YK  26037.47800926  .00000000  00000+0  00000-0 0  9996
2 18945  65.0000 156.0000 0000000   0.0000 156.0000 15.80155563    14
CTC1_L_00018014-02
1 18946U 22354MP  26037.47800926  .00000000  00000+0  00000-0 0  9997
2 18946  65.0000 156.0000 0000000   0.0000 246.0000 15.80155563    15
CTC1_L_00018014-03
1 18947U 23574OE  26037.47800926  .00000000  00000+0  00000-0 0  9993
2 18947  65.0000 156.0000 0000000   0.0000 336.0000 15.80155563    16
CTC1_L_00018014-04
1 18948U 23207VI  26037.47800926  .00000000  00000+0  00000-0 0  9997
2 18948  65.0000 156.0000 0000000   0.0000  66.0000 15.80155563    17
CTC1_L_00018015-01
1 18949U 25660ZS  26037.47800926  .00000000  00000+0  00000-0 0  9993
2 18949  65.0000 168.0000 0000000   0.0000 168.0000 15.80155563    14
CTC1_L_00018015-02
1 18950U 22524DC  26037.47800926  .00000000  00000+0  00000-0 0  9991
2 18950  65.0000 168.0000 0000000   0.0000 258.0000 15.80155563    16
CTC1_L_00018015-03
1 18951U 22108HW  26037.47800926  .00000000  00000+0  00000-0 0  9990
2 18951  65.0000 168.0000 0000000   0.0000 348.0000 15.80155563    17
CTC1_L_00018015-04
1 18952U 23998ZF  26037.47800926  .00000000  00000+0  00000-0 0  9999
2 18952  65.0000 168.0000 0000000   0.0000  78.0000 15.80155563    18
CTC1_L_00018016-01
1 18953U 26231CQ  26037.47800926  .00000000  00000+0  00000-0 0  9993
2 18953  65.0000 180.0000 0000000   0.0000 180.0000 15.80155563    17
CTC1_L_00018016-02
1 18954U 26139HW  26037.47800926  .00000000  00000+0  00000-0 0  9991
2 18954  65.0000 180.0000 0000000   0.0000 270.0000 15.80155563    18
